TJS-23                  
1 67226U 25306A   26018.01557007  .00000040  00000+0  00000+0 0  9993
2 67226   5.9290 298.2601 0000917  73.1983 287.0482  1.00270944   385
CZ-5 R/B                
1 67227U 25306B   26017.76902967  .00007758  00000+0  20390-2 0  9994
2 67227  16.2505 289.6560 7577835 196.3739 108.5140  1.92580498   567
QPS-SAR-15              
1 67228U 25307A   26018.91650384  .00004917  00000+0  43090-3 0  9994
2 67228  42.0085 326.7373 0007720  99.3546 260.8152 14.97402484  4291
ELECTRON R/B            
1 67229U 25307B   26018.84321523  .01393839  79136-5  16087-2 0  9999
2 67229  41.9901 308.4278 0112787  89.7230 271.6554 15.96253570  4499
SPACEMOBILE-006         
1 67232U 25309A   26018.93174511 -.00000843  00000+0 -25517-4 0  9997
2 67232  52.9974 294.8522 0012027  41.0922 319.0975 15.17747154  3920
LVM3 R/B                
1 67233U 25309B   26018.96657099  .00007679  00000+0  36885-3 0  9999
2 67233  52.9299 294.0931 0012037  65.0006 295.2236 15.19733871  3936
2025-310A               
1 67234U 25310A   26018.99457193  .00000024  00000+0  10800-4 0  9995
2 67234  97.9665  28.4434 0002249 167.1793 192.9474 14.75704200  3629
SL-4 R/B                
1 67235U 25310B   26018.78831454  .00279252  24712-5  56237-3 0  9995
2 67235  97.9611  31.0421 0255210 348.7009  10.8579 15.61596523  3764
HULIANWANG DIGUI-128    
1 67236U 25311A   26018.87116323 -.00000017  00000+0  10671-3 0  9990
2 67236  50.0057 300.5666 0003108 337.5017  22.5744 13.88340181  3337
HULIANWANG DIGUI-129    
1 67237U 25311B   26018.72886334 -.00000022  00000+0  10227-3 0  9994
2 67237  50.0108 301.1467 0003027   4.8681 355.2246 13.88330463  3315
HULIANWANG DIGUI-130    
1 67238U 25311C   26017.94509087 -.00000017  00000+0  10729-3 0  9996
2 67238  50.0071 304.3181 0004384 339.5994  20.4728 13.87898371  3205
HULIANWANG DIGUI-131    
1 67239U 25311D   26018.88478562 -.00000023  00000+0  10397-3 0  9992
2 67239  50.0080 300.6215 0004019 346.4750  13.6039 13.87037266  3336
