CCSDS_OMM_VERS = 2.0
CREATION_DATE  = 
ORIGINATOR     = 

OBJECT_NAME    = TJS-23
OBJECT_ID      = 2025-306A
CENTER_NAME    = EARTH
REF_FRAME      = TEME
TIME_SYSTEM    = UTC
MEAN_ELEMENT_THEORY = SGP/SGP4

EPOCH          = 2026-01-18T00:22:25.254048
MEAN_MOTION    = 1.00270944
ECCENTRICITY   = .00009178
INCLINATION    = 5.9290
RA_OF_ASC_NODE = 298.2601
ARG_OF_PERICENTER = 73.1983
MEAN_ANOMALY   = 287.0482

EPHEMERIS_TYPE = 0
CLASSIFICATION_TYPE = U
NORAD_CAT_ID   = 67226
ELEMENT_SET_NO = 999
REV_AT_EPOCH   = 38
BSTAR          = 0
MEAN_MOTION_DOT = .4E-6
MEAN_MOTION_DDOT = 0

CCSDS_OMM_VERS = 2.0
CREATION_DATE  = 
ORIGINATOR     = 

OBJECT_NAME    = CZ-5 R/B
OBJECT_ID      = 2025-306B
CENTER_NAME    = EARTH
REF_FRAME      = TEME
TIME_SYSTEM    = UTC
MEAN_ELEMENT_THEORY = SGP/SGP4

EPOCH          = 2026-01-17T18:27:24.163488
MEAN_MOTION    = 1.92580498
ECCENTRICITY   = .75778351
INCLINATION    = 16.2505
RA_OF_ASC_NODE = 289.6560
ARG_OF_PERICENTER = 196.3739
MEAN_ANOMALY   = 108.5140

EPHEMERIS_TYPE = 0
CLASSIFICATION_TYPE = U
NORAD_CAT_ID   = 67227
ELEMENT_SET_NO = 999
REV_AT_EPOCH   = 56
BSTAR          = .20390373E-2
MEAN_MOTION_DOT = .7758E-4
MEAN_MOTION_DDOT = 0

CCSDS_OMM_VERS = 2.0
CREATION_DATE  = 
ORIGINATOR     = 

OBJECT_NAME    = QPS-SAR-15
OBJECT_ID      = 2025-307A
CENTER_NAME    = EARTH
REF_FRAME      = TEME
TIME_SYSTEM    = UTC
MEAN_ELEMENT_THEORY = SGP/SGP4

EPOCH          = 2026-01-18T21:59:45.931776
MEAN_MOTION    = 14.97402484
ECCENTRICITY   = .000772
INCLINATION    = 42.0085
RA_OF_ASC_NODE = 326.7373
ARG_OF_PERICENTER = 99.3546
MEAN_ANOMALY   = 260.8152

EPHEMERIS_TYPE = 0
CLASSIFICATION_TYPE = U
NORAD_CAT_ID   = 67228
ELEMENT_SET_NO = 999
REV_AT_EPOCH   = 429
BSTAR          = .4308954E-3
MEAN_MOTION_DOT = .4917E-4
MEAN_MOTION_DDOT = 0

CCSDS_OMM_VERS = 2.0
CREATION_DATE  = 
ORIGINATOR     = 

OBJECT_NAME    = ELECTRON R/B
OBJECT_ID      = 2025-307B
CENTER_NAME    = EARTH
REF_FRAME      = TEME
TIME_SYSTEM    = UTC
MEAN_ELEMENT_THEORY = SGP/SGP4

EPOCH          = 2026-01-18T20:14:13.795872
MEAN_MOTION    = 15.96253570
ECCENTRICITY   = .01127875
INCLINATION    = 41.9901
RA_OF_ASC_NODE = 308.4278
ARG_OF_PERICENTER = 89.7230
MEAN_ANOMALY   = 271.6554

EPHEMERIS_TYPE = 0
CLASSIFICATION_TYPE = U
NORAD_CAT_ID   = 67229
ELEMENT_SET_NO = 999
REV_AT_EPOCH   = 449
BSTAR          = .16086681E-2
MEAN_MOTION_DOT = .1393839E-1
MEAN_MOTION_DDOT = .7913601E-5

CCSDS_OMM_VERS = 2.0
CREATION_DATE  = 
ORIGINATOR     = 

OBJECT_NAME    = SPACEMOBILE-006
OBJECT_ID      = 2025-309A
CENTER_NAME    = EARTH
REF_FRAME      = TEME
TIME_SYSTEM    = UTC
MEAN_ELEMENT_THEORY = SGP/SGP4

EPOCH          = 2026-01-18T22:21:42.777504
MEAN_MOTION    = 15.17747154
ECCENTRICITY   = .00120273
INCLINATION    = 52.9974
RA_OF_ASC_NODE = 294.8522
ARG_OF_PERICENTER = 41.0922
MEAN_ANOMALY   = 319.0975

EPHEMERIS_TYPE = 0
CLASSIFICATION_TYPE = U
NORAD_CAT_ID   = 67232
ELEMENT_SET_NO = 999
REV_AT_EPOCH   = 392
BSTAR          = -.25516901E-4
MEAN_MOTION_DOT = -.843E-5
MEAN_MOTION_DDOT = 0

CCSDS_OMM_VERS = 2.0
CREATION_DATE  = 
ORIGINATOR     = 

OBJECT_NAME    = LVM3 R/B
OBJECT_ID      = 2025-309B
CENTER_NAME    = EARTH
REF_FRAME      = TEME
TIME_SYSTEM    = UTC
MEAN_ELEMENT_THEORY = SGP/SGP4

EPOCH          = 2026-01-18T23:11:51.733536
MEAN_MOTION    = 15.19733871
ECCENTRICITY   = .00120377
INCLINATION    = 52.9299
RA_OF_ASC_NODE = 294.0931
ARG_OF_PERICENTER = 65.0006
MEAN_ANOMALY   = 295.2236

EPHEMERIS_TYPE = 0
CLASSIFICATION_TYPE = U
NORAD_CAT_ID   = 67233
ELEMENT_SET_NO = 999
REV_AT_EPOCH   = 393
BSTAR          = .36885439E-3
MEAN_MOTION_DOT = .7679E-4
MEAN_MOTION_DDOT = 0

CCSDS_OMM_VERS = 2.0
CREATION_DATE  = 
ORIGINATOR     = 

OBJECT_NAME    = 2025-310A
OBJECT_ID      = 2025-310A
CENTER_NAME    = EARTH
REF_FRAME      = TEME
TIME_SYSTEM    = UTC
MEAN_ELEMENT_THEORY = SGP/SGP4

EPOCH          = 2026-01-18T23:52:11.014752
MEAN_MOTION    = 14.75704200
ECCENTRICITY   = .0002249
INCLINATION    = 97.9665
RA_OF_ASC_NODE = 28.4434
ARG_OF_PERICENTER = 167.1793
MEAN_ANOMALY   = 192.9474

EPHEMERIS_TYPE = 0
CLASSIFICATION_TYPE = U
NORAD_CAT_ID   = 67234
ELEMENT_SET_NO = 999
REV_AT_EPOCH   = 362
BSTAR          = .10800295E-4
MEAN_MOTION_DOT = .24E-6
MEAN_MOTION_DDOT = 0

CCSDS_OMM_VERS = 2.0
CREATION_DATE  = 
ORIGINATOR     = 

OBJECT_NAME    = SL-4 R/B
OBJECT_ID      = 2025-310B
CENTER_NAME    = EARTH
REF_FRAME      = TEME
TIME_SYSTEM    = UTC
MEAN_ELEMENT_THEORY = SGP/SGP4

EPOCH          = 2026-01-18T18:55:10.376256
MEAN_MOTION    = 15.61596523
ECCENTRICITY   = .02552105
INCLINATION    = 97.9611
RA_OF_ASC_NODE = 31.0421
ARG_OF_PERICENTER = 348.7009
MEAN_ANOMALY   = 10.8579

EPHEMERIS_TYPE = 0
CLASSIFICATION_TYPE = U
NORAD_CAT_ID   = 67235
ELEMENT_SET_NO = 999
REV_AT_EPOCH   = 376
BSTAR          = .56236881E-3
MEAN_MOTION_DOT = .279252E-2
MEAN_MOTION_DDOT = .2471216E-5

CCSDS_OMM_VERS = 2.0
CREATION_DATE  = 
ORIGINATOR     = 

OBJECT_NAME    = HULIANWANG DIGUI-128
OBJECT_ID      = 2025-311A
CENTER_NAME    = EARTH
REF_FRAME      = TEME
TIME_SYSTEM    = UTC
MEAN_ELEMENT_THEORY = SGP/SGP4

EPOCH          = 2026-01-18T20:54:28.503072
MEAN_MOTION    = 13.88340181
ECCENTRICITY   = .00031085
INCLINATION    = 50.0057
RA_OF_ASC_NODE = 300.5666
ARG_OF_PERICENTER = 337.5017
MEAN_ANOMALY   = 22.5744

EPHEMERIS_TYPE = 0
CLASSIFICATION_TYPE = U
NORAD_CAT_ID   = 67236
ELEMENT_SET_NO = 999
REV_AT_EPOCH   = 333
BSTAR          = .10670985E-3
MEAN_MOTION_DOT = -.17E-6
MEAN_MOTION_DDOT = 0

CCSDS_OMM_VERS = 2.0
CREATION_DATE  = 
ORIGINATOR     = 

OBJECT_NAME    = HULIANWANG DIGUI-129
OBJECT_ID      = 2025-311B
CENTER_NAME    = EARTH
REF_FRAME      = TEME
TIME_SYSTEM    = UTC
MEAN_ELEMENT_THEORY = SGP/SGP4

EPOCH          = 2026-01-18T17:29:33.792576
MEAN_MOTION    = 13.88330463
ECCENTRICITY   = .00030278
INCLINATION    = 50.0108
RA_OF_ASC_NODE = 301.1467
ARG_OF_PERICENTER = 4.8681
MEAN_ANOMALY   = 355.2246

EPHEMERIS_TYPE = 0
CLASSIFICATION_TYPE = U
NORAD_CAT_ID   = 67237
ELEMENT_SET_NO = 999
REV_AT_EPOCH   = 331
BSTAR          = .10227442E-3
MEAN_MOTION_DOT = -.22E-6
MEAN_MOTION_DDOT = 0

CCSDS_OMM_VERS = 2.0
CREATION_DATE  = 
ORIGINATOR     = 

OBJECT_NAME    = HULIANWANG DIGUI-130
OBJECT_ID      = 2025-311C
CENTER_NAME    = EARTH
REF_FRAME      = TEME
TIME_SYSTEM    = UTC
MEAN_ELEMENT_THEORY = SGP/SGP4

EPOCH          = 2026-01-17T22:40:55.851168
MEAN_MOTION    = 13.87898371
ECCENTRICITY   = .00043842
INCLINATION    = 50.0071
RA_OF_ASC_NODE = 304.3181
ARG_OF_PERICENTER = 339.5994
MEAN_ANOMALY   = 20.4728

EPHEMERIS_TYPE = 0
CLASSIFICATION_TYPE = U
NORAD_CAT_ID   = 67238
ELEMENT_SET_NO = 999
REV_AT_EPOCH   = 320
BSTAR          = .10728919E-3
MEAN_MOTION_DOT = -.17E-6
MEAN_MOTION_DDOT = 0

CCSDS_OMM_VERS = 2.0
CREATION_DATE  = 
ORIGINATOR     = 

OBJECT_NAME    = HULIANWANG DIGUI-131
OBJECT_ID      = 2025-311D
CENTER_NAME    = EARTH
REF_FRAME      = TEME
TIME_SYSTEM    = UTC
MEAN_ELEMENT_THEORY = SGP/SGP4

EPOCH          = 2026-01-18T21:14:05.477568
MEAN_MOTION    = 13.87037266
ECCENTRICITY   = .00040193
INCLINATION    = 50.0080
RA_OF_ASC_NODE = 300.6215
ARG_OF_PERICENTER = 346.4750
MEAN_ANOMALY   = 13.6039

EPHEMERIS_TYPE = 0
CLASSIFICATION_TYPE = U
NORAD_CAT_ID   = 67239
ELEMENT_SET_NO = 999
REV_AT_EPOCH   = 333
BSTAR          = .1039672E-3
MEAN_MOTION_DOT = -.23E-6
MEAN_MOTION_DDOT = 0

